{
    "links": {
        "self": "http://www.neowsapp.com/rest/v1/neo/3760538?api_key=iIulBulltgU6a56xZRHN4H3l9WmuAYTsLGpBGhQ2"
    },
    "id": "3760538",
    "neo_reference_id": "3760538",
    "name": "(2016 TY17)",
    "designation": "2016 TY17",
    "nasa_jpl_url": "http://ssd.jpl.nasa.gov/sbdb.cgi?sstr=3760538",
    "absolute_magnitude_h": 22.7,
    "estimated_diameter": {
        "kilometers": {
            "estimated_diameter_min": 0.0766575574,
            "estimated_diameter_max": 0.1714115092
        },
        "meters": {
            "estimated_diameter_min": 76.6575573531,
            "estimated_diameter_max": 171.4115092306
        },
        "miles": {
            "estimated_diameter_min": 0.0476327831,
            "estimated_diameter_max": 0.1065101409
        },
        "feet": {
            "estimated_diameter_min": 251.5011804664,
            "estimated_diameter_max": 562.3737359442
        }
    },
    "is_potentially_hazardous_asteroid": false,
    "close_approach_data": [
        {
            "close_approach_date": "2016-10-12",
            "close_approach_date_full": "2016-Oct-12 00:24",
            "epoch_date_close_approach": 1476231840000,
            "relative_velocity": {
                "kilometers_per_second": "15.0074568365",
                "kilometers_per_hour": "54026.8446112823",
                "miles_per_hour": "33570.1801974937"
            },
            "miss_distance": {
                "astronomical": "0.2853171466",
                "lunar": "110.9883700274",
                "kilometers": "42682837.405837742",
                "miles": "26521885.3278231596"
            },
            "orbiting_body": "Earth"
        },
        {
            "close_approach_date": "2027-10-09",
            "close_approach_date_full": "2027-Oct-09 18:56",
            "epoch_date_close_approach": 1823108160000,
            "relative_velocity": {
                "kilometers_per_second": "20.7184958671",
                "kilometers_per_hour": "74586.5851214974",
                "miles_per_hour": "46345.2034050771"
            },
            "miss_distance": {
                "astronomical": "0.4593962727",
                "lunar": "178.7051500803",
                "kilometers": "68724703.881859149",
                "miles": "42703550.8022242962"
            },
            "orbiting_body": "Earth"
        },
        {
            "close_approach_date": "2034-11-10",
            "close_approach_date_full": "2034-Nov-10 02:23",
            "epoch_date_close_approach": 2046738180000,
            "relative_velocity": {
                "kilometers_per_second": "12.9875585282",
                "kilometers_per_hour": "46755.2107014232",
                "miles_per_hour": "29051.8696716704"
            },
            "miss_distance": {
                "astronomical": "0.0884020004",
                "lunar": "34.3883781556",
                "kilometers": "13224750.963579148",
                "miles": "8217479.1991943224"
            },
            "orbiting_body": "Mars"
        }
    ],
    "orbital_data": {
        "orbit_id": "7",
        "orbit_determination_date": "2017-04-06 08:23:14",
        "first_observation_date": "2016-09-30",
        "last_observation_date": "2016-10-25",
        "data_arc_in_days": 25,
        "observations_used": 27,
        "orbit_uncertainty": "7",
        "minimum_orbit_intersection": ".267829",
        "jupiter_tisserand_invariant": "4.028",
        "epoch_osculation": "2459000.5",
        "eccentricity": ".3426720190174158",
        "semi_major_axis": "1.683457986179919",
        "inclination": "28.78057346770921",
        "ascending_node_longitude": "7.70308385509376",
        "orbital_period": "797.8143622681321",
        "perihelion_distance": "1.106584039124653",
        "perihelion_argument": "66.97858161303341",
        "aphelion_distance": "2.260331933235185",
        "perihelion_time": "2459334.605292946048",
        "mean_anomaly": "209.2407367565617",
        "mean_motion": ".4512327892625854",
        "equinox": "J2000",
        "orbit_class": {
            "orbit_class_type": "AMO",
            "orbit_class_description": "Near-Earth asteroid orbits similar to that of 1221 Amor",
            "orbit_class_range": "1.017 AU < q (perihelion) < 1.3 AU"
        }
    },
    "is_sentry_object": false
}